{
  "type": "FeatureCollection",
  "features": [
    {
      "type": "Feature",
      "properties": {
        "norad_id": 41890,
        "name": "CYGFM07",
        "group": "weather",
        "lat": 1.3907717994691773,
        "lon": 4.536551508737357,
        "alt_km": 418.5312696946812,
        "timestamp": "2025-12-15T14:57:57.486473+00:00",
        "meta_object_name": "CYGFM07",
        "meta_object_id": "2016-078G",
        "meta_epoch": "2025-12-14T11:08:00.987648",
        "meta_mean_motion": 15.50086962,
        "meta_eccentricity": 0.00100354,
        "meta_inclination": 34.9485,
        "meta_ra_of_asc_node": 10.1487,
        "meta_arg_of_pericenter": 230.6716,
        "meta_mean_anomaly": 129.3117,
        "meta_ephemeris_type": 0,
        "meta_classification_type": "U",
        "meta_norad_cat_id": 41890,
        "meta_element_set_no": 999,
        "meta_rev_at_epoch": 50022,
        "meta_bstar": 0.00033505643,
        "meta_mean_motion_dot": 0.00019468,
        "meta_mean_motion_ddot": 0,
        "tle_line1": "1 41890U 16078G   25348.46390032  .00019468  00000+0  33506-3 0  9990",
        "tle_line2": "2 41890  34.9485  10.1487 0010035 230.6716 129.3117 15.50086962500227"
      },
      "geometry": {
        "type": "Point",
        "coordinates": [
          4.536551508737357,
          1.3907717994691773
        ]
      }
    },
    {
      "type": "Feature",
      "properties": {
        "norad_id": 41891,
        "name": "CYGFM03",
        "group": "weather",
        "lat": -9.125805691902887,
        "lon": -162.23528618682428,
        "alt_km": 411.22225062611415,
        "timestamp": "2025-12-15T14:57:57.486482+00:00",
        "meta_object_name": "CYGFM03",
        "meta_object_id": "2016-078H",
        "meta_epoch": "2025-12-14T18:01:45.093504",
        "meta_mean_motion": 15.49996518,
        "meta_eccentricity": 0.00095028,
        "meta_inclination": 34.944,
        "meta_ra_of_asc_node": 10.1843,
        "meta_arg_of_pericenter": 220.7718,
        "meta_mean_anomaly": 139.2294,
        "meta_ephemeris_type": 0,
        "meta_classification_type": "U",
        "meta_norad_cat_id": 41891,
        "meta_element_set_no": 999,
        "meta_rev_at_epoch": 50024,
        "meta_bstar": 0.0003331193,
        "meta_mean_motion_dot": 0.00019289,
        "meta_mean_motion_ddot": 0,
        "tle_line1": "1 41891U 16078H   25348.75121636  .00019289  00000+0  33312-3 0  9991",
        "tle_line2": "2 41891  34.9440  10.1843 0009502 220.7718 139.2294 15.49996518500247"
      },
      "geometry": {
        "type": "Point",
        "coordinates": [
          -162.23528618682428,
          -9.125805691902887
        ]
      }
    },
    {
      "type": "Feature",
      "properties": {
        "norad_id": 43010,
        "name": "FENGYUN 3D",
        "group": "weather",
        "lat": -21.55726744568338,
        "lon": -40.437756397598484,
        "alt_km": 832.3831674918083,
        "timestamp": "2025-12-15T14:57:57.486491+00:00",
        "meta_object_name": "FENGYUN 3D",
        "meta_object_id": "2017-072A",
        "meta_epoch": "2025-12-14T23:50:43.680768",
        "meta_mean_motion": 14.19684329,
        "meta_eccentricity": 0.00010317,
        "meta_inclination": 98.989,
        "meta_ra_of_asc_node": 315.3376,
        "meta_arg_of_pericenter": 174.1962,
        "meta_mean_anomaly": 185.9225,
        "meta_ephemeris_type": 0,
        "meta_classification_type": "U",
        "meta_norad_cat_id": 43010,
        "meta_element_set_no": 999,
        "meta_rev_at_epoch": 41885,
        "meta_bstar": 2.4937965e-05,
        "meta_mean_motion_dot": 7e-08,
        "meta_mean_motion_ddot": 0,
        "tle_line1": "1 43010U 17072A   25348.99356112  .00000007  00000+0  24938-4 0  9999",
        "tle_line2": "2 43010  98.9890 315.3376 0001031 174.1962 185.9225 14.19684329418851"
      },
      "geometry": {
        "type": "Point",
        "coordinates": [
          -40.437756397598484,
          -21.55726744568338
        ]
      }
    },
    {
      "type": "Feature",
      "properties": {
        "norad_id": 43013,
        "name": "NOAA 20 (JPSS-1)",
        "group": "weather",
        "lat": 50.18360084919641,
        "lon": 116.54739321809646,
        "alt_km": 821.260001004759,
        "timestamp": "2025-12-15T14:57:57.486500+00:00",
        "meta_object_name": "NOAA 20 (JPSS-1)",
        "meta_object_id": "2017-073A",
        "meta_epoch": "2025-12-14T21:26:39.539616",
        "meta_mean_motion": 14.19526267,
        "meta_eccentricity": 0.00021549,
        "meta_inclination": 98.76,
        "meta_ra_of_asc_node": 285.1667,
        "meta_arg_of_pericenter": 84.1144,
        "meta_mean_anomaly": 276.0277,
        "meta_ephemeris_type": 0,
        "meta_classification_type": "U",
        "meta_norad_cat_id": 43013,
        "meta_element_set_no": 999,
        "meta_rev_at_epoch": 41832,
        "meta_bstar": 6.0674093e-05,
        "meta_mean_motion_dot": 8.4e-07,
        "meta_mean_motion_ddot": 0,
        "tle_line1": "1 43013U 17073A   25348.89351319  .00000084  00000+0  60674-4 0  9998",
        "tle_line2": "2 43013  98.7600 285.1667 0002154  84.1144 276.0277 14.19526267418324"
      },
      "geometry": {
        "type": "Point",
        "coordinates": [
          116.54739321809646,
          50.18360084919641
        ]
      }
    },
    {
      "type": "Feature",
      "properties": {
        "norad_id": 43226,
        "name": "GOES 17",
        "group": "weather",
        "lat": 0.3342435451151798,
        "lon": -140.52026183910388,
        "alt_km": 35779.19060611564,
        "timestamp": "2025-12-15T14:57:57.486512+00:00",
        "meta_object_name": "GOES 17",
        "meta_object_id": "2018-022A",
        "meta_epoch": "2025-12-14T21:33:14.450688",
        "meta_mean_motion": 1.00271596,
        "meta_eccentricity": 0.00031843,
        "meta_inclination": 0.4652,
        "meta_ra_of_asc_node": 89.1017,
        "meta_arg_of_pericenter": 189.5382,
        "meta_mean_anomaly": 38.9867,
        "meta_ephemeris_type": 0,
        "meta_classification_type": "U",
        "meta_norad_cat_id": 43226,
        "meta_element_set_no": 999,
        "meta_rev_at_epoch": 2857,
        "meta_bstar": 0,
        "meta_mean_motion_dot": -1.63e-06,
        "meta_mean_motion_ddot": 0,
        "tle_line1": "1 43226U 18022A   25348.89808392 -.00000163  00000+0  00000+0 0  9998",
        "tle_line2": "2 43226   0.4652  89.1017 0003184 189.5382  38.9867  1.00271596 28578"
      },
      "geometry": {
        "type": "Point",
        "coordinates": [
          -140.52026183910388,
          0.3342435451151798
        ]
      }
    },
    {
      "type": "Feature",
      "properties": {
        "norad_id": 43491,
        "name": "FENGYUN 2H",
        "group": "weather",
        "lat": -2.023502003307782,
        "lon": 28.410013088564504,
        "alt_km": 35794.93694045467,
        "timestamp": "2025-12-15T14:57:57.486524+00:00",
        "meta_object_name": "FENGYUN 2H",
        "meta_object_id": "2018-050A",
        "meta_epoch": "2025-12-14T22:21:24.837408",
        "meta_mean_motion": 1.00271326,
        "meta_eccentricity": 0.00026186,
        "meta_inclination": 2.5567,
        "meta_ra_of_asc_node": 81.3073,
        "meta_arg_of_pericenter": 167.3824,
        "meta_mean_anomaly": 249.8641,
        "meta_ephemeris_type": 0,
        "meta_classification_type": "U",
        "meta_norad_cat_id": 43491,
        "meta_element_set_no": 999,
        "meta_rev_at_epoch": 2759,
        "meta_bstar": 0,
        "meta_mean_motion_dot": -1.11e-06,
        "meta_mean_motion_ddot": 0,
        "tle_line1": "1 43491U 18050A   25348.93153747 -.00000111  00000+0  00000+0 0  9998",
        "tle_line2": "2 43491   2.5567  81.3073 0002618 167.3824 249.8641  1.00271326 27597"
      },
      "geometry": {
        "type": "Point",
        "coordinates": [
          28.410013088564504,
          -2.023502003307782
        ]
      }
    },
    {
      "type": "Feature",
      "properties": {
        "norad_id": 43689,
        "name": "METOP-C",
        "group": "weather",
        "lat": -68.11835556736044,
        "lon": 69.74051951346648,
        "alt_km": 827.7600572111096,
        "timestamp": "2025-12-15T14:57:57.486542+00:00",
        "meta_object_name": "METOP-C",
        "meta_object_id": "2018-087A",
        "meta_epoch": "2025-12-14T20:42:41.109984",
        "meta_mean_motion": 14.21485156,
        "meta_eccentricity": 0.00011469,
        "meta_inclination": 98.6929,
        "meta_ra_of_asc_node": 46.6002,
        "meta_arg_of_pericenter": 36.0116,
        "meta_mean_anomaly": 324.1138,
        "meta_ephemeris_type": 0,
        "meta_classification_type": "U",
        "meta_norad_cat_id": 43689,
        "meta_element_set_no": 999,
        "meta_rev_at_epoch": 36864,
        "meta_bstar": 8.2885837e-05,
        "meta_mean_motion_dot": 1.38e-06,
        "meta_mean_motion_ddot": 0,
        "tle_line1": "1 43689U 18087A   25348.86297581  .00000138  00000+0  82886-4 0  9999",
        "tle_line2": "2 43689  98.6929  46.6002 0001146  36.0116 324.1138 14.21485156368648"
      },
      "geometry": {
        "type": "Point",
        "coordinates": [
          69.74051951346648,
          -68.11835556736044
        ]
      }
    }
  ]
}